OBJECT_NAME,OBJECT_ID,EPOCH,MEAN_MOTION,ECCENTRICITY,INCLINATION,RA_OF_ASC_NODE,ARG_OF_PERICENTER,MEAN_ANOMALY,EPHEMERIS_TYPE,CLASSIFICATION_TYPE,NORAD_CAT_ID,ELEMENT_SET_NO,REV_AT_EPOCH,BSTAR,MEAN_MOTION_DOT,MEAN_MOTION_DDOT
LEMUR-2-ROUNDTRIPPER,2025-009DG,2026-07-20T03:48:11.221344,15.04274415,.00044596,97.7241,283.7997,55.0162,305.1482,0,U,62711,999,8258,.30453867E-3,.4177E-4,0
LEMUR-2-MYNAMEISJEFF,2025-009DH,2026-07-19T18:11:19.525632,15.04261876,.00043695,97.7289,283.8001,88.5252,271.6474,0,U,62712,999,8252,.28585817E-3,.3916E-4,0
LEMUR-2-LEIA-PHILIP,2025-052AN,2026-07-19T16:20:12.028128,14.97392896,.0005043,97.6792,92.0799,110.2054,249.9711,0,U,63246,999,7353,.10244544E-4,.62E-6,0
LEMUR-2-LIA-MARTIN,2025-052AQ,2026-07-19T22:34:18.830208,14.98045693,.00049728,97.6851,92.8622,78.1562,282.0218,0,U,63248,999,7358,.11481931E-3,.1299E-4,0
LEMUR-2-DELOITTE-1,2025-052BB,2026-07-20T02:55:53.429088,14.97806554,.00025323,97.6886,93.3710,57.5042,302.6425,0,U,63259,999,7362,.21493375E-3,.2467E-4,0
LEMUR-2-EMERSONROSE,2025-052BD,2026-07-20T04:45:16.557984,14.99315368,.00024199,97.6884,94.0706,48.0369,312.1060,0,U,63261,999,7368,.19088864E-3,.2273E-4,0
LEMUR-2-MARACHE-FRAN,2025-052BE,2026-07-19T22:48:55.794528,15.00331698,.00057649,97.6816,94.1976,233.5753,126.4939,0,U,63262,999,7367,.13538639E-3,.1639E-4,0
LEMUR-2-THEFALCONER,2025-052BG,2026-07-19T16:27:18.333504,14.97573199,.00006405,97.6815,92.5267,226.4008,133.7162,0,U,63264,999,7355,.98722553E-4,.1095E-4,0
LEMUR-2-UNTITLED-SC,2025-061A,2026-07-19T21:06:31.967424,15.13663233,.00196306,97.5661,176.0110,147.4932,212.7513,0,U,63351,999,7253,.10358432E-3,.1804E-4,0
LEMUR-2-ESPERANZA,2025-061B,2026-07-19T22:05:43.705536,15.13769438,.00192682,97.5667,176.1531,146.7405,213.5042,0,U,63352,999,7254,.98735892E-4,.1721E-4,0
LEMUR-2-KREMPEL-BRO2,2025-061C,2026-07-19T20:55:58.221696,15.14196674,.00203955,97.5712,176.6800,139.8605,220.4138,0,U,63353,999,7255,.10595043E-3,.1876E-4,0
LEMUR-2-THERMORAPTOR,2025-061D,2026-07-19T22:02:45.548736,15.14279945,.00201116,97.5719,176.8081,138.6783,221.5975,0,U,63354,999,7256,.10481839E-3,.1859E-4,0
LEMUR-2-NEUROSPICY,2025-061E,2026-07-19T21:18:19.579104,15.14398618,.00178774,97.5647,176.3783,141.5649,218.6860,0,U,63355,999,7256,.10554303E-3,.1877E-4,0
LEMUR-2-TILLINFINITY,2025-061F,2026-07-20T05:46:30.829440,15.14985861,.00193969,97.5632,177.0428,129.5348,230.7602,0,U,63356,999,7264,.11629764E-3,.2112E-4,0
LEMUR-2-KREMPEL-BRO1,2025-061G,2026-07-19T21:18:46.711296,15.14789895,.00200221,97.5633,176.5989,132.0054,228.2886,0,U,63357,999,7258,.10470456E-3,.1884E-4,0
LEMUR-2-LANGER2SPACE,2025-061H,2026-07-19T22:06:24.367968,15.14483460,.00178029,97.5637,176.4326,139.8593,220.3958,0,U,63358,999,7257,.1044557E-3,.1861E-4,0
LEMUR-2-BALTO,2025-052BH,2026-07-20T03:14:16.480608,15.00387609,.00049722,97.6918,94.3745,305.9171,54.1591,0,U,63395,999,7370,.18460864E-3,.226E-4,0
LEMUR-2-KRISH,2025-135AK,2026-07-20T00:59:54.307392,14.96467316,.0001126,97.7763,315.7010,106.1381,253.9965,0,U,64561,999,5883,.19606807E-3,.2167E-4,0
LEMUR-2-HUBBLE-4,2025-135AP,2026-07-20T07:11:07.678752,14.93693240,.00030517,97.7722,314.8238,150.2214,209.9180,0,U,64565,999,5881,.49997704E-4,.472E-5,0
LEMUR-2-SEJONG-2,2025-135BL,2026-07-20T06:16:48.148032,14.96936440,.00042763,97.7709,316.0652,194.9703,165.1393,0,U,64586,999,5889,.24732281E-3,.2783E-4,0
LEMUR-2-HUBBLE-5,2025-135BT,2026-07-20T00:55:32.198304,14.94219461,.00046981,97.7742,315.2401,215.8788,144.2118,0,U,64840,999,5881,.45476121E-4,.43E-5,0
LEMUR-2-KARENDARRELL,2025-135BU,2026-07-19T20:44:45.786048,15.00537259,.00128299,97.7720,317.0332,90.7114,269.5579,0,U,64841,999,5891,.32585197E-3,.4055E-4,0
LEMUR-2-LUCILLE-ROSE,2025-135BV,2026-07-20T00:54:41.139360,15.00521746,.00153946,97.7699,317.2410,174.6289,185.5103,0,U,65403,999,5356,.28821965E-3,.3581E-4,0
LEMUR-2-AFFIE-WAUWIE,2025-248C,2026-07-20T06:31:10.706016,15.28387854,.00092673,45.3906,295.5651,278.2221,81.7618,0,U,66295,999,3965,.45736339E-3,.12608E-3,0
OTTER SDM,2025-276N,2026-07-20T02:24:26.180064,15.20088886,.00045648,97.4195,274.0355,231.4320,128.6507,0,U,66678,999,3541,.15757409E-3,.3335E-4,0
LEMUR-2-STAS-GORBUK,2025-276W,2026-07-20T02:57:09.397152,15.19686165,.00039436,97.4229,274.1089,225.2698,134.8217,0,U,66686,999,3541,.13210926E-3,.2752E-4,0
LEMUR-2-TEODOR,2025-276DG,2026-07-20T03:16:22.025856,15.21366988,.00021235,97.4133,274.4002,84.2829,275.8649,0,U,66768,999,3545,.1413006E-3,.3098E-4,0
LEMUR-2-LAILA,2025-276DQ,2026-07-20T02:31:49.423296,15.21593471,.00028412,97.4158,274.5115,87.2465,272.9096,0,U,66776,999,3545,.13915133E-3,.307E-4,0
LEMUR-2-CELIJO-SB-PK,2025-276DW,2026-07-20T02:53:15.467424,15.00314671,.00067247,97.5182,270.8102,52.3506,307.8327,0,U,66781,999,2756,.25373796E-3,.3125E-4,0
